{
  "norad_id": 38978,
  "name": "YAMAL 300K",
  "history": [
    {
      "epoch": "2026-03-28T01:57:49.145184",
      "apogee_km": 35790.35010579341,
      "perigee_km": 35782.87513898036,
      "latitude_deg": 0.0024398330129325376,
      "longitude_deg": -114.34539423999377,
      "semi_major_axis_km": 42164.74962238689,
      "eccentricity": 8.864e-05,
      "inclination_deg": 0.0098,
      "raan_deg": 228.2695,
      "arg_perigee_deg": 5.8458,
      "mean_anomaly_deg": 163.7716,
      "mean_motion_rev_day": 1.00271722
    }
  ]
}